COSMOS 2251 DEB         
1 37968U 93036BPT 17345.11156219  .00000509  00000-0  74893-4 0  9999
2 37968  74.0075 267.6279 0131174  44.2305 316.9261 14.72679774433228
